[{"OBJECT_NAME":"STARLINK-31490","OBJECT_ID":"2024-046X","EPOCH":"2026-03-09T22:29:20.325984","MEAN_MOTION":15.30192098,"ECCENTRICITY":8.027e-5,"INCLINATION":53.158,"RA_OF_ASC_NODE":154.4532,"ARG_OF_PERICENTER":80.9222,"MEAN_ANOMALY":279.1869,"EPHEMERIS_TYPE":0,"CLASSIFICATION_TYPE":"U","NORAD_CAT_ID":59222,"ELEMENT_SET_NO":999,"REV_AT_EPOCH":11307,"BSTAR":9.8074396e-5,"MEAN_MOTION_DOT":2.546e-5,"MEAN_MOTION_DDOT":0},{"OBJECT_NAME":"OBJECT K","OBJECT_ID":"2024-205K","EPOCH":"2026-03-09T22:22:01.331040","MEAN_MOTION":15.27932792,"ECCENTRICITY":0.00106729,"INCLINATION":97.417,"RA_OF_ASC_NODE":146.2172,"ARG_OF_PERICENTER":37.4736,"MEAN_ANOMALY":322.7246,"EPHEMERIS_TYPE":0,"CLASSIFICATION_TYPE":"U","NORAD_CAT_ID":61903,"ELEMENT_SET_NO":999,"REV_AT_EPOCH":7347,"BSTAR":0.00067315144,"MEAN_MOTION_DOT":0.00018331,"MEAN_MOTION_DDOT":0}]
